ONEWEB-0710             
1 55173U 23004AK  23259.25001157  .00042576  00000+0  10924+0 0  9990
2 55173  87.9198 205.5783 0002251  75.5820 218.4071 13.17571206 35231
ONEWEB-0711             
1 55174U 23004AL  23259.42242213  .00001135  00000+0  31678-2 0  9998
2 55174  87.8952 220.6532 0000904  89.2011 270.9221 13.11413610 34154
ONEWEB-0713             
1 55175U 23004AM  23258.45067373 -.00000114  00000+0 -35823-3 0  9998
2 55175  87.8946 220.8547 0001308  93.9308 266.1969 13.11413333 34008
ONEWEB-0715             
1 55176U 23004AN  23259.36096975  .00001141  00000+0  31827-2 0  9998
2 55176  87.8930 220.6902 0001879  87.0833 273.0510 13.11409796 34170
ONEWEB-0716             
1 55177U 23004AP  23259.58334491 -.00016879  00000+0 -39464-1 0  9991
2 55177  87.9357 205.5195 0002702  77.8220 343.7071 13.24354591 35280
ONEWEB-0717             
1 55178U 23004AQ  23259.58334491  .00000013  00000+0  00000+0 0  9995
2 55178  87.9408 205.4688 0002232  76.2953  76.0884 13.24499793 35336
ONEWEB-0719             
1 55179U 23004AR  23259.25589681 -.00072921  00000+0 -17333+0 0  9999
2 55179  87.9430 205.5184 0004114 113.0669 247.0900 13.23620461 35245
ONEWEB-0530             
1 55796U 23029A   23259.58334491 -.01150272  00000+0 -65240+0 0  9991
2 55796  87.1239 116.8618 0003002 116.7219 143.0456 14.13265809 29011
